ONEWEB-0228             
1 48780U 21045P   24221.49946175 -.00000030  00000+0 -11389-3 0  9994
2 48780  87.9027  34.0329 0001641  88.9520 271.1798 13.15551725155222
